[{"OBJECT_NAME":"STARLINK-1227","OBJECT_ID":"2020-012BE","EPOCH":"2026-03-09T04:25:44.093568","MEAN_MOTION":15.31040019,"ECCENTRICITY":0.00010621,"INCLINATION":53.1607,"RA_OF_ASC_NODE":1.2165,"ARG_OF_PERICENTER":82.0274,"MEAN_ANOMALY":278.0847,"EPHEMERIS_TYPE":0,"CLASSIFICATION_TYPE":"U","NORAD_CAT_ID":45230,"ELEMENT_SET_NO":999,"REV_AT_EPOCH":33545,"BSTAR":4.7655496e-5,"MEAN_MOTION_DOT":1.087e-5,"MEAN_MOTION_DDOT":0},{"OBJECT_NAME":"CZ-6A DEB","OBJECT_ID":"2022-151QB","EPOCH":"2026-03-08T18:03:47.471328","MEAN_MOTION":15.32168285,"ECCENTRICITY":0.00205863,"INCLINATION":98.6246,"RA_OF_ASC_NODE":151.4486,"ARG_OF_PERICENTER":181.9757,"MEAN_ANOMALY":178.1404,"EPHEMERIS_TYPE":0,"CLASSIFICATION_TYPE":"U","NORAD_CAT_ID":54890,"ELEMENT_SET_NO":999,"REV_AT_EPOCH":17659,"BSTAR":0.012866954,"MEAN_MOTION_DOT":0.00424465,"MEAN_MOTION_DDOT":0}]
